STARLINK-2049_new
1 17356C 21005H   21326.08733571  .00007721  00000-0  51727-3 0  3267
2 17356  53.0533 233.3566 0002053  67.0726  66.5760 15.06391893    18
STARLINK-2049_old
1 27356C 21005H   21325.16179979  .00008403  00000-0  56311-3 0  3252
2 27356  53.0539 237.5111 0001987  65.7536  85.9269 15.06381396    11
